OBJECT_NAME,OBJECT_ID,EPOCH,MEAN_MOTION,ECCENTRICITY,INCLINATION,RA_OF_ASC_NODE,ARG_OF_PERICENTER,MEAN_ANOMALY,EPHEMERIS_TYPE,CLASSIFICATION_TYPE,NORAD_CAT_ID,ELEMENT_SET_NO,REV_AT_EPOCH,BSTAR,MEAN_MOTION_DOT,MEAN_MOTION_DDOT
HOKUSHIN-1,1998-067YH,2026-07-07T10:21:31.120416,15.50745793,.00060998,51.6313,199.7545,301.0821,58.9569,0,U,69648,999,279,.30853726E-3,.1767E-3,0
STARLINK-37656,2026-143A,2026-07-07T12:00:02.999808,15.55786151,.00018938,97.2847,232.3068,80.8685,97.1775,0,U,69649,999,372,-.36635463E-1,-.2230976E-1,0
STARLINK-37646,2026-143B,2026-07-07T12:00:02.999808,15.70040634,.00011415,97.2854,232.4082,65.9161,356.9869,0,U,69650,999,372,-.57786663E-2,-.642748E-2,0
STARLINK-37749,2026-143C,2026-07-07T12:00:02.999808,15.68403856,.00013066,97.2853,232.4159,71.8217,3.3397,0,U,69651,999,372,-.24316734E-1,-.2399986E-1,0
STARLINK-37819,2026-143D,2026-07-07T12:00:02.999808,15.66325845,.00011864,97.2854,232.3977,80.4255,309.2349,0,U,69652,999,372,-.26345647E-1,-.2390044E-1,0
STARLINK-37729,2026-143E,2026-07-07T12:00:02.999808,15.81869804,.00008455,97.2834,232.4373,166.5070,322.7878,0,U,69653,999,372,.70252111E-3,.143428E-2,0
STARLINK-37838,2026-143F,2026-07-07T12:00:02.999808,15.74792860,.00018117,97.2852,232.4175,48.9391,40.4346,0,U,69654,999,372,-.20308685E-1,-.2598804E-1,0
STARLINK-37884,2026-143G,2026-07-07T12:00:02.999808,15.62565163,.00010975,97.2853,232.3997,79.6241,316.8753,0,U,69655,999,372,-.31003646E-1,-.2417443E-1,0
STARLINK-37876,2026-143H,2026-07-07T12:00:02.999808,15.73326085,.00016919,97.2847,232.4267,84.4857,25.2841,0,U,69656,999,362,-.1937615E-1,-.2310215E-1,0
STARLINK-37784,2026-143J,2026-07-07T12:00:02.999808,15.64939280,.00010645,97.2852,232.4033,73.2292,334.7372,0,U,69657,999,362,-.27822187E-1,-.2387361E-1,0
STARLINK-37851,2026-143K,2026-07-07T12:00:02.999808,15.71567947,.00017889,97.2851,232.4334,84.4987,41.1101,0,U,69658,999,361,-.20425629E-1,-.2266036E-1,0
STARLINK-37229,2026-143L,2026-07-07T12:00:02.999808,15.69060786,.0001378,97.2851,232.4042,70.8392,347.0041,0,U,69659,999,366,-.25112382E-1,-.2527917E-1,0
STARLINK-37556,2026-143M,2026-07-07T12:00:02.999808,15.70689183,.0001307,97.2853,232.4147,73.1834,5.1143,0,U,69660,999,366,-.2219861E-1,-.2356986E-1,0
STARLINK-37867,2026-143N,2026-07-07T12:00:02.999808,15.70801963,.00019251,97.2849,232.4360,82.2705,48.1053,0,U,69661,999,362,-.22739933E-1,-.2470656E-1,0
STARLINK-37852,2026-143P,2026-07-07T12:00:02.999808,15.63967454,.0001027,97.2851,232.3959,97.3552,289.7809,0,U,69662,999,362,-.27930291E-1,-.2315348E-1,0
STARLINK-37554,2026-143Q,2026-07-07T12:00:02.999808,15.69304515,.00017308,97.2853,232.4195,66.5500,27.5461,0,U,69663,999,366,-.17620337E-1,-.1796433E-1,0
STARLINK-37830,2026-143R,2026-07-07T12:00:02.999808,15.66230478,.0001125,97.2859,232.4078,84.0115,333.6073,0,U,69664,999,361,-.26451587E-1,-.2390318E-1,0
STARLINK-37837,2026-143S,2026-07-07T12:00:02.999808,15.71261010,.00017948,97.2851,232.4302,67.4254,43.9491,0,U,69665,999,362,-.19329197E-1,-.2135807E-1,0
STARLINK-37943,2026-143T,2026-07-07T12:00:02.999808,15.63606796,.00013249,97.2853,232.4028,67.0290,347.2835,0,U,69666,999,362,-.99239105E-2,-.831558E-2,0
STARLINK-37941,2026-143U,2026-07-07T12:00:02.999808,15.68529731,.00014464,97.2854,232.4182,88.0248,4.2376,0,U,69667,999,362,-.11901166E-1,-.1209545E-1,0
STARLINK-37930,2026-143V,2026-07-07T12:00:02.999808,15.66317136,.00009825,97.2853,232.4163,91.6225,347.7354,0,U,69668,999,361,-.63691555E-2,-.610678E-2,0
STARLINK-37945,2026-143W,2026-07-07T12:00:02.999808,15.71598380,.00018048,97.2851,232.4370,88.3139,45.2014,0,U,69669,999,362,-.21876913E-1,-.2406073E-1,0
STARLINK-37948,2026-143X,2026-07-07T12:00:02.999808,15.54917213,.0001246,97.2855,232.3966,83.5492,300.1997,0,U,69670,999,362,-.39599863E-1,-.2321962E-1,0
STARLINK-37949,2026-143Y,2026-07-07T12:00:02.999808,15.62467659,.00011448,97.2852,232.4206,76.0480,16.2167,0,U,69671,999,362,-.80816704E-2,-.661282E-2,0
STARLINK-37946,2026-143Z,2026-07-07T12:00:02.999808,15.67727827,.00017506,97.2848,232.4373,81.2918,51.9702,0,U,69672,999,362,-.24931748E-1,-.2394565E-1,0
TJS-26A,2026-144A,2026-06-23T07:54:55.514880,2.27958502,.73145613,19.5157,324.7456,179.7910,181.1077,0,U,69674,999,2,.31526459E-3,.963E-4,-.166614E-6
CZ-7A R/B,2026-144B,2026-07-07T05:56:38.078016,2.50473702,.71630314,19.4678,318.7224,189.9723,139.1752,0,U,69675,999,36,.72345471E-3,.571767E-2,-.661E-7
2026-132G,2026-132G,2026-06-27T03:19:26.058720,15.03894241,.00213411,97.6876,241.7399,253.6187,106.2693,0,U,69676,999,227,.61874088E-3,.8509E-4,0
STARLINK-38005,2026-145A,2026-07-07T10:13:53.353344,15.75375757,.00012357,97.2849,34.8789,75.7123,284.4279,0,U,69677,999,195,.10937895E-2,.167598E-2,0
STARLINK-38009,2026-145B,2026-07-07T10:11:20.713920,15.75395580,.00011778,97.2844,34.8810,94.8477,265.2922,0,U,69678,999,195,.12129101E-2,.186438E-2,0
