HOKUSHIN-1              
1 69648U 98067YH  26188.43161019  .00017670  00000+0  30854-3 0  9996
2 69648  51.6313 199.7545 0006099 301.0821  58.9569 15.50745793  2799
STARLINK-37656          
1 69649U 26143A   26188.50003472 -.02230976  00000+0 -36635-1 0  9990
2 69649  97.2847 232.3068 0001893  80.8685  97.1775 15.55786151  3725
STARLINK-37646          
1 69650U 26143B   26188.50003472 -.00642748  00000+0 -57787-2 0  9996
2 69650  97.2854 232.4082 0001141  65.9161 356.9869 15.70040634  3727
STARLINK-37749          
1 69651U 26143C   26188.50003472 -.02399986  00000+0 -24317-1 0  9994
2 69651  97.2853 232.4159 0001306  71.8217   3.3397 15.68403856  3728
STARLINK-37819          
1 69652U 26143D   26188.50003472 -.02390044  00000+0 -26346-1 0  9995
2 69652  97.2854 232.3977 0001186  80.4255 309.2349 15.66325845  3725
STARLINK-37729          
1 69653U 26143E   26188.50003472  .00143428  00000+0  70252-3 0  9991
2 69653  97.2834 232.4373 0000845 166.5070 322.7878 15.81869804  3729
STARLINK-37838          
1 69654U 26143F   26188.50003472 -.02598804  00000+0 -20309-1 0  9994
2 69654  97.2852 232.4175 0001811  48.9391  40.4346 15.74792860  3726
STARLINK-37884          
1 69655U 26143G   26188.50003472 -.02417443  00000+0 -31004-1 0  9998
2 69655  97.2853 232.3997 0001097  79.6241 316.8753 15.62565163  3723
STARLINK-37876          
1 69656U 26143H   26188.50003472 -.02310215  00000+0 -19376-1 0  9996
2 69656  97.2847 232.4267 0001691  84.4857  25.2841 15.73326085  3623
STARLINK-37784          
1 69657U 26143J   26188.50003472 -.02387361  00000+0 -27822-1 0  9998
2 69657  97.2852 232.4033 0001064  73.2292 334.7372 15.64939280  3628
STARLINK-37851          
1 69658U 26143K   26188.50003472 -.02266036  00000+0 -20426-1 0  9997
2 69658  97.2851 232.4334 0001788  84.4987  41.1101 15.71567947  3613
STARLINK-37229          
1 69659U 26143L   26188.50003472 -.02527917  00000+0 -25112-1 0  9993
2 69659  97.2851 232.4042 0001378  70.8392 347.0041 15.69060786  3666
STARLINK-37556          
1 69660U 26143M   26188.50003472 -.02356986  00000+0 -22199-1 0  9993
2 69660  97.2853 232.4147 0001307  73.1834   5.1143 15.70689183  3660
STARLINK-37867          
1 69661U 26143N   26188.50003472 -.02470656  00000+0 -22740-1 0  9997
2 69661  97.2849 232.4360 0001925  82.2705  48.1053 15.70801963  3622
STARLINK-37852          
1 69662U 26143P   26188.50003472 -.02315348  00000+0 -27930-1 0  9990
2 69662  97.2851 232.3959 0001027  97.3552 289.7809 15.63967454  3621
STARLINK-37554          
1 69663U 26143Q   26188.50003472 -.01796433  00000+0 -17620-1 0  9993
2 69663  97.2853 232.4195 0001730  66.5500  27.5461 15.69304515  3664
STARLINK-37830          
1 69664U 26143R   26188.50003472 -.02390318  00000+0 -26452-1 0  9990
2 69664  97.2859 232.4078 0001125  84.0115 333.6073 15.66230478  3614
STARLINK-37837          
1 69665U 26143S   26188.50003472 -.02135807  00000+0 -19329-1 0  9996
2 69665  97.2851 232.4302 0001794  67.4254  43.9491 15.71261010  3626
STARLINK-37943          
1 69666U 26143T   26188.50003472 -.00831558  00000+0 -99239-2 0  9990
2 69666  97.2853 232.4028 0001324  67.0290 347.2835 15.63606796  3626
STARLINK-37941          
1 69667U 26143U   26188.50003472 -.01209545  00000+0 -11901-1 0  9996
2 69667  97.2854 232.4182 0001446  88.0248   4.2376 15.68529731  3628
STARLINK-37930          
1 69668U 26143V   26188.50003472 -.00610678  00000+0 -63692-2 0  9994
2 69668  97.2853 232.4163 0000982  91.6225 347.7354 15.66317136  3618
STARLINK-37945          
1 69669U 26143W   26188.50003472 -.02406073  00000+0 -21877-1 0  9997
2 69669  97.2851 232.4370 0001804  88.3139  45.2014 15.71598380  3620
STARLINK-37948          
1 69670U 26143X   26188.50003472 -.02321962  00000+0 -39600-1 0  9995
2 69670  97.2855 232.3966 0001246  83.5492 300.1997 15.54917213  3629
STARLINK-37949          
1 69671U 26143Y   26188.50003472 -.00661282  00000+0 -80817-2 0  9993
2 69671  97.2852 232.4206 0001144  76.0480  16.2167 15.62467659  3623
STARLINK-37946          
1 69672U 26143Z   26188.50003472 -.02394565  00000+0 -24932-1 0  9998
2 69672  97.2848 232.4373 0001750  81.2918  51.9702 15.67727827  3623
TJS-26A                 
1 69674U 26144A   26174.32980920  .00009630 -16661-6  31526-3 0  9997
2 69674  19.5157 324.7456 7314561 179.7910 181.1077  2.27958502    21
CZ-7A R/B               
1 69675U 26144B   26188.24766294  .00571767 -66100-7  72345-3 0  9993
2 69675  19.4678 318.7224 7163031 189.9723 139.1752  2.50473702   364
2026-132G               
1 69676U 26132G   26178.13849605  .00008509  00000+0  61874-3 0  9998
2 69676  97.6876 241.7399 0021341 253.6187 106.2693 15.03894241  2272
STARLINK-38005          
1 69677U 26145A   26188.42631196  .00167598  00000+0  10938-2 0  9998
2 69677  97.2849  34.8789 0001235  75.7123 284.4279 15.75375757  1954
STARLINK-38009          
1 69678U 26145B   26188.42454530  .00186438  00000+0  12129-2 0  9992
2 69678  97.2844  34.8810 0001177  94.8477 265.2922 15.75395580  1952
